{"type": "FeatureCollection", "features": [ {"type": "Feature", "properties": {"norad_id": 42741, "name": "EUTELSAT 172B", "group": "eutelsat", "lat": 0.00956585907827013, "lon": 75.22000057378004, "alt_km": 35785.31697950884, "timestamp": "2025-12-21T11:31:42.513987+00:00", "meta": {"OBJECT_NAME": "EUTELSAT 172B", "OBJECT_ID": "2017-029B", "EPOCH": "2025-12-21T01:51:38.617056", "MEAN_MOTION": 1.00271482, "ECCENTRICITY": 2.14e-05, "INCLINATION": 0.0336, "RA_OF_ASC_NODE": 122.8073, "ARG_OF_PERICENTER": 335.7639, "MEAN_ANOMALY": 191.2452, "EPHEMERIS_TYPE": 0, "CLASSIFICATION_TYPE": "U", "NORAD_CAT_ID": 42741, "ELEMENT_SET_NO": 999, "REV_AT_EPOCH": 3194, "BSTAR": 0, "MEAN_MOTION_DOT": 1.7e-07, "MEAN_MOTION_DDOT": 0}, "tle": {"line1": "1 42741U 17029B   25355.07753029  .00000017  00000+0  00000+0 0  9996", "line2": "2 42741   0.0336 122.8073 0000214 335.7639 191.2452  1.00271482 31944"}}, "geometry": {"type": "Point", "coordinates": [75.22000057378004, 0.00956585907827013]}}, {"type": "Feature", "properties": {"norad_id": 44334, "name": "EUTELSAT 7C", "group": "eutelsat", "lat": 0.04631667188815283, "lon": -89.77936100204305, "alt_km": 35771.37934307192, "timestamp": "2025-12-21T11:31:42.514000+00:00", "meta": {"OBJECT_NAME": "EUTELSAT 7C", "OBJECT_ID": "2019-034B", "EPOCH": "2025-12-21T03:32:38.808096", "MEAN_MOTION": 1.00275585, "ECCENTRICITY": 0.0003296, "INCLINATION": 0.0735, "RA_OF_ASC_NODE": 180.1639, "ARG_OF_PERICENTER": 76.9681, "MEAN_ANOMALY": 252.9905, "EPHEMERIS_TYPE": 0, "CLASSIFICATION_TYPE": "U", "NORAD_CAT_ID": 44334, "ELEMENT_SET_NO": 999, "REV_AT_EPOCH": 505, "BSTAR": 0, "MEAN_MOTION_DOT": 7.2e-07, "MEAN_MOTION_DDOT": 0}, "tle": {"line1": "1 44334U 19034B   25355.14767139  .00000072  00000+0  00000+0 0  9990", "line2": "2 44334   0.0735 180.1639 0003296  76.9681 252.9905  1.00275585  5055"}}, "geometry": {"type": "Point", "coordinates": [-89.77936100204305, 0.04631667188815283]}}, {"type": "Feature", "properties": {"norad_id": 44624, "name": "EUTELSAT 5 WEST B", "group": "eutelsat", "lat": -0.09036179564985439, "lon": -101.78481080344675, "alt_km": 35773.72204072773, "timestamp": "2025-12-21T11:31:42.514012+00:00", "meta": {"OBJECT_NAME": "EUTELSAT 5 WEST B", "OBJECT_ID": "2019-067A", "EPOCH": "2025-12-21T03:40:38.748864", "MEAN_MOTION": 1.00271336, "ECCENTRICITY": 0.000301, "INCLINATION": 0.0667, "RA_OF_ASC_NODE": 336.125, "ARG_OF_PERICENTER": 293.8202, "MEAN_ANOMALY": 230.1981, "EPHEMERIS_TYPE": 0, "CLASSIFICATION_TYPE": "U", "NORAD_CAT_ID": 44624, "ELEMENT_SET_NO": 999, "REV_AT_EPOCH": 2265, "BSTAR": 0, "MEAN_MOTION_DOT": -1.9e-07, "MEAN_MOTION_DDOT": 0}, "tle": {"line1": "1 44624U 19067A   25355.15322626 -.00000019  00000+0  00000+0 0  9999", "line2": "2 44624   0.0667 336.1250 0003010 293.8202 230.1981  1.00271336 22653"}}, "geometry": {"type": "Point", "coordinates": [-101.78481080344675, -0.09036179564985439]}}, {"type": "Feature", "properties": {"norad_id": 45027, "name": "EUTELSAT KONNECT", "group": "eutelsat", "lat": -0.020625559574123407, "lon": -89.56637579744961, "alt_km": 35777.19249160062, "timestamp": "2025-12-21T11:31:42.514024+00:00", "meta": {"OBJECT_NAME": "EUTELSAT KONNECT", "OBJECT_ID": "2020-005B", "EPOCH": "2025-12-21T03:32:38.808096", "MEAN_MOTION": 1.00277731, "ECCENTRICITY": 0.0001707, "INCLINATION": 0.0689, "RA_OF_ASC_NODE": 95.0259, "ARG_OF_PERICENTER": 180.8319, "MEAN_ANOMALY": 234.4854, "EPHEMERIS_TYPE": 0, "CLASSIFICATION_TYPE": "U", "NORAD_CAT_ID": 45027, "ELEMENT_SET_NO": 999, "REV_AT_EPOCH": 2255, "BSTAR": 0, "MEAN_MOTION_DOT": 7.4e-07, "MEAN_MOTION_DDOT": 0}, "tle": {"line1": "1 45027U 20005B   25355.14767139  .00000074  00000+0  00000+0 0  9992", "line2": "2 45027   0.0689  95.0259 0001707 180.8319 234.4854  1.00277731 22550"}}, "geometry": {"type": "Point", "coordinates": [-89.56637579744961, -0.020625559574123407]}}, {"type": "Feature", "properties": {"norad_id": 49056, "name": "EUTELSAT QUANTUM", "group": "eutelsat", "lat": -0.040784214916779686, "lon": -49.05489500282824, "alt_km": 35773.78875150268, "timestamp": "2025-12-21T11:31:42.514036+00:00", "meta": {"OBJECT_NAME": "EUTELSAT QUANTUM", "OBJECT_ID": "2021-069B", "EPOCH": "2025-12-21T03:09:06.881760", "MEAN_MOTION": 1.00272298, "ECCENTRICITY": 0.0003348, "INCLINATION": 0.0206, "RA_OF_ASC_NODE": 37.9704, "ARG_OF_PERICENTER": 241.7055, "MEAN_ANOMALY": 265.2643, "EPHEMERIS_TYPE": 0, "CLASSIFICATION_TYPE": "U", "NORAD_CAT_ID": 49056, "ELEMENT_SET_NO": 999, "REV_AT_EPOCH": 1614, "BSTAR": 0, "MEAN_MOTION_DOT": 1.49e-06, "MEAN_MOTION_DDOT": 0}, "tle": {"line1": "1 49056U 21069B   25355.13132965  .00000149  00000+0  00000+0 0  9994", "line2": "2 49056   0.0206  37.9704 0003348 241.7055 265.2643  1.00272298 16147"}}, "geometry": {"type": "Point", "coordinates": [-49.05489500282824, -0.040784214916779686]}}, {"type": "Feature", "properties": {"norad_id": 53765, "name": "EUTELSAT KONNECT VHTS", "group": "eutelsat", "lat": -0.012586710391295719, "lon": -94.01964908090267, "alt_km": 35775.63265415974, "timestamp": "2025-12-21T11:31:42.514049+00:00", "meta": {"OBJECT_NAME": "EUTELSAT KONNECT VHTS", "OBJECT_ID": "2022-110A", "EPOCH": "2025-12-21T03:32:38.808096", "MEAN_MOTION": 1.00273259, "ECCENTRICITY": 0.0002786, "INCLINATION": 0.0618, "RA_OF_ASC_NODE": 99.8078, "ARG_OF_PERICENTER": 134.255, "MEAN_ANOMALY": 271.8139, "EPHEMERIS_TYPE": 0, "CLASSIFICATION_TYPE": "U", "NORAD_CAT_ID": 53765, "ELEMENT_SET_NO": 999, "REV_AT_EPOCH": 504, "BSTAR": 0, "MEAN_MOTION_DOT": 4.1e-07, "MEAN_MOTION_DDOT": 0}, "tle": {"line1": "1 53765U 22110A   25355.14767139  .00000041  00000+0  00000+0 0  9993", "line2": "2 53765   0.0618  99.8078 0002786 134.2550 271.8139  1.00273259  5046"}}, "geometry": {"type": "Point", "coordinates": [-94.01964908090267, -0.012586710391295719]}}, {"type": "Feature", "properties": {"norad_id": 54048, "name": "EUTELSAT HOTBIRD 13F", "group": "eutelsat", "lat": -0.03554338628853543, "lon": -83.80634422403904, "alt_km": 35784.48387424835, "timestamp": "2025-12-21T11:31:42.514061+00:00", "meta": {"OBJECT_NAME": "EUTELSAT HOTBIRD 13F", "OBJECT_ID": "2022-134A", "EPOCH": "2025-12-21T02:59:15.326016", "MEAN_MOTION": 1.00274346, "ECCENTRICITY": 0.0002284, "INCLINATION": 0.0523, "RA_OF_ASC_NODE": 292.1414, "ARG_OF_PERICENTER": 68.9297, "MEAN_ANOMALY": 146.6896, "EPHEMERIS_TYPE": 0, "CLASSIFICATION_TYPE": "U", "NORAD_CAT_ID": 54048, "ELEMENT_SET_NO": 999, "REV_AT_EPOCH": 1159, "BSTAR": 0, "MEAN_MOTION_DOT": 1.11e-06, "MEAN_MOTION_DDOT": 0}, "tle": {"line1": "1 54048U 22134A   25355.12448294  .00000111  00000+0  00000+0 0  9998", "line2": "2 54048   0.0523 292.1414 0002284  68.9297 146.6896  1.00274346 11596"}}, "geometry": {"type": "Point", "coordinates": [-83.80634422403904, -0.03554338628853543]}}, {"type": "Feature", "properties": {"norad_id": 54225, "name": "EUTELSAT HOTBIRD 13G", "group": "eutelsat", "lat": -0.0018079873695348188, "lon": -83.76257691309709, "alt_km": 35786.566514463535, "timestamp": "2025-12-21T11:31:42.514073+00:00", "meta": {"OBJECT_NAME": "EUTELSAT HOTBIRD 13G", "OBJECT_ID": "2022-146A", "EPOCH": "2025-12-21T03:24:38.628000", "MEAN_MOTION": 1.00273909, "ECCENTRICITY": 0.0001862, "INCLINATION": 0.0535, "RA_OF_ASC_NODE": 228.7562, "ARG_OF_PERICENTER": 309.3055, "MEAN_ANOMALY": 336.0609, "EPHEMERIS_TYPE": 0, "CLASSIFICATION_TYPE": "U", "NORAD_CAT_ID": 54225, "ELEMENT_SET_NO": 999, "REV_AT_EPOCH": 568, "BSTAR": 0, "MEAN_MOTION_DOT": 1.1e-06, "MEAN_MOTION_DDOT": 0}, "tle": {"line1": "1 54225U 22146A   25355.14211375  .00000110  00000+0  00000+0 0  9997", "line2": "2 54225   0.0535 228.7562 0001862 309.3055 336.0609  1.00273909  5684"}}, "geometry": {"type": "Point", "coordinates": [-83.76257691309709, -0.0018079873695348188]}}, {"type": "Feature", "properties": {"norad_id": 54259, "name": "EUTELSAT 10B", "group": "eutelsat", "lat": -0.02244826514019318, "lon": -86.77282840798202, "alt_km": 35788.89969735622, "timestamp": "2025-12-21T11:31:42.514085+00:00", "meta": {"OBJECT_NAME": "EUTELSAT 10B", "OBJECT_ID": "2022-157A", "EPOCH": "2025-12-21T03:24:38.628000", "MEAN_MOTION": 1.00272805, "ECCENTRICITY": 7.49e-05, "INCLINATION": 0.0623, "RA_OF_ASC_NODE": 96.4166, "ARG_OF_PERICENTER": 6.6781, "MEAN_ANOMALY": 48.0384, "EPHEMERIS_TYPE": 0, "CLASSIFICATION_TYPE": "U", "NORAD_CAT_ID": 54259, "ELEMENT_SET_NO": 999, "REV_AT_EPOCH": 1124, "BSTAR": 0, "MEAN_MOTION_DOT": 9.2e-07, "MEAN_MOTION_DDOT": 0}, "tle": {"line1": "1 54259U 22157A   25355.14211375  .00000092  00000+0  00000+0 0  9995", "line2": "2 54259   0.0623  96.4166 0000749   6.6781  48.0384  1.00272805 11248"}}, "geometry": {"type": "Point", "coordinates": [-86.77282840798202, -0.02244826514019318]}}, {"type": "Feature", "properties": {"norad_id": 59346, "name": "EUTELSAT 36D", "group": "eutelsat", "lat": -0.048650681764081466, "lon": -60.93482815698229, "alt_km": 35784.807497743735, "timestamp": "2025-12-21T11:31:42.514097+00:00", "meta": {"OBJECT_NAME": "EUTELSAT 36D", "OBJECT_ID": "2024-059A", "EPOCH": "2025-12-21T03:05:44.704896", "MEAN_MOTION": 1.00273114, "ECCENTRICITY": 4.4e-05, "INCLINATION": 0.0249, "RA_OF_ASC_NODE": 26.7512, "ARG_OF_PERICENTER": 334.3962, "MEAN_ANOMALY": 171.0916, "EPHEMERIS_TYPE": 0, "CLASSIFICATION_TYPE": "U", "NORAD_CAT_ID": 59346, "ELEMENT_SET_NO": 999, "REV_AT_EPOCH": 636, "BSTAR": 0, "MEAN_MOTION_DOT": 0, "MEAN_MOTION_DDOT": 0}, "tle": {"line1": "1 59346U 24059A   25355.12898964  .00000000  00000+0  00000+0 0  9992", "line2": "2 59346   0.0249  26.7512 0000440 334.3962 171.0916  1.00273114  6364"}}, "geometry": {"type": "Point", "coordinates": [-60.93482815698229, -0.048650681764081466]}}]}